{
"type": "FeatureCollection",
"name": "HOMICIDIOS_2023_2025_Obrero",
"crs": { "type": "name", "properties": { "name": "urn:ogc:def:crs:OGC:1.3:CRS84" } },
"features": [
{ "type": "Feature", "properties": { "DELITO": "HOMICIDIO", "TIPO_VIOLE": "DELINCUENCIA", "COMUNA": 9, "NOM_COMUNA": "Comuna 09", "BARRIO": 910, "NOM_BARRIO": "Barrio Obrero", "DIRECCION": "CL 24 KR 11D", "X": -76.51892582000001, "Y": 3.447540935, "FECHA_HECH": "2024-02-20T00:00:00", "HORA_HECHO": "17:40", "ESTRATO": 2 }, "geometry": { "type": "Point", "coordinates": [ -76.51892582, 3.447540935 ] } },
{ "type": "Feature", "properties": { "DELITO": "HOMICIDIO", "TIPO_VIOLE": "DELINCUENCIA", "COMUNA": 9, "NOM_COMUNA": "Comuna 09", "BARRIO": 910, "NOM_BARRIO": "Barrio Obrero", "DIRECCION": "CL 11 B KR 24", "X": -76.51882827, "Y": 3.448370969, "FECHA_HECH": "2024-03-09T00:00:00", "HORA_HECHO": "20:15", "ESTRATO": 2 }, "geometry": { "type": "Point", "coordinates": [ -76.51882827, 3.448370969 ] } },
{ "type": "Feature", "properties": { "DELITO": "HOMICIDIO", "TIPO_VIOLE": "DELINCUENCIA", "COMUNA": 9, "NOM_COMUNA": "Comuna 09", "BARRIO": 910, "NOM_BARRIO": "Barrio Obrero", "DIRECCION": "CL 25 KR 11", "X": -76.51841493000001, "Y": 3.44942867, "FECHA_HECH": "2025-01-19T00:00:00", "HORA_HECHO": "6:40", "ESTRATO": 2 }, "geometry": { "type": "Point", "coordinates": [ -76.51841493, 3.44942867 ] } }
]
}
