{
"type": "FeatureCollection",
"name": "HURTOS_2023_2025_OBRERO",
"crs": { "type": "name", "properties": { "name": "urn:ogc:def:crs:OGC:1.3:CRS84" } },
"features": [
{ "type": "Feature", "properties": { "DELITO": "HURTO", "TIPO_HURTO": "HURTO A CELULARES", "MODALIDAD": "ATRACO", "COMUNA": 9, "NOM_COMUNA": "COMUNA 9", "BARRIO": 910, "NOM_BARRIO": "Barrio Obrero", "DIRECCION": "76001 Barrio Obrero, Comuna 9, Cali, Valle del Cauca, COL,BARRIO OBRERO", "SITIO": "SIN INFORMACION", "X": -76.52029, "Y": 3.44812, "FECHA_HECH": "2023-11-20T00:00:00", "HORA_HECHO": "16:47", "ESTRATO": 2 }, "geometry": { "type": "Point", "coordinates": [ -76.52029, 3.44812 ] } },
{ "type": "Feature", "properties": { "DELITO": "HURTO", "TIPO_HURTO": "HURTO A PERSONAS", "MODALIDAD": "ATRACO", "COMUNA": 9, "NOM_COMUNA": "COMUNA 9", "BARRIO": 910, "NOM_BARRIO": "Barrio Obrero", "DIRECCION": "76001 CARRERA 11B 22A 46, BARRIO OBRERO, COMUNA 9, CALI, VALLE DEL CAUCA", "SITIO": "VIA PUBLICA", "X": -76.520311, "Y": 3.448062, "FECHA_HECH": "2023-11-20T00:00:00", "HORA_HECHO": "00:00", "ESTRATO": 2 }, "geometry": { "type": "Point", "coordinates": [ -76.520311, 3.448062 ] } },
{ "type": "Feature", "properties": { "DELITO": "HURTO", "TIPO_HURTO": "HURTO A PERSONAS", "MODALIDAD": "FACTOR DE OPORTUNIDAD", "COMUNA": 9, "NOM_COMUNA": "COMUNA 9", "BARRIO": 910, "NOM_BARRIO": "Barrio Obrero", "DIRECCION": "76001 Calle 23, Barrio Obrero, Comuna 9, Cali, Valle del Cauca, COL,BARRIO OBRERO", "SITIO": "SIN INFORMACION", "X": -76.519917, "Y": 3.448683, "FECHA_HECH": "2023-04-06T00:00:00", "HORA_HECHO": "12:00", "ESTRATO": 2 }, "geometry": { "type": "Point", "coordinates": [ -76.519917, 3.448683 ] } },
{ "type": "Feature", "properties": { "DELITO": "HURTO", "TIPO_HURTO": "HURTO A PERSONAS", "MODALIDAD": "ATRACO", "COMUNA": 9, "NOM_COMUNA": "COMUNA 9", "BARRIO": 910, "NOM_BARRIO": "Barrio Obrero", "DIRECCION": "76001 Carrera 11B 22A 46, Barrio Obrero, Comuna 9, Cali, Valle del Cauca, COL,BARRIO OBRERO", "SITIO": "SIN INFORMACION", "X": -76.520311, "Y": 3.448062, "FECHA_HECH": "2023-02-24T00:00:00", "HORA_HECHO": "06:00", "ESTRATO": 2 }, "geometry": { "type": "Point", "coordinates": [ -76.520311, 3.448062 ] } },
{ "type": "Feature", "properties": { "DELITO": "HURTO", "TIPO_HURTO": "HURTO A ESTABLECIMIENTOS", "MODALIDAD": "FACTOR DE OPORTUNIDAD", "COMUNA": 9, "NOM_COMUNA": "COMUNA 9", "BARRIO": 910, "NOM_BARRIO": "Barrio Obrero", "DIRECCION": "76001 NO REPORTA CALLE 25 CON CARRERA 11 B 11", "SITIO": "SIN INFORMACION", "X": -76.51827, "Y": 3.448784, "FECHA_HECH": "2023-07-14T00:00:00", "HORA_HECHO": "16:00", "ESTRATO": 2 }, "geometry": { "type": "Point", "coordinates": [ -76.51827, 3.448784 ] } },
{ "type": "Feature", "properties": { "DELITO": "HURTO", "TIPO_HURTO": "HURTO A PERSONAS", "MODALIDAD": "FACTOR DE OPORTUNIDAD", "COMUNA": 9, "NOM_COMUNA": "COMUNA 9", "BARRIO": 910, "NOM_BARRIO": "Barrio Obrero", "DIRECCION": "76001 Carrera 11, Barrio Obrero, Comuna 9, Cali, Valle del Cauca, COL,BARRIO OBRERO", "SITIO": "SIN INFORMACION", "X": -76.520557, "Y": 3.448852, "FECHA_HECH": "2023-05-23T00:00:00", "HORA_HECHO": "19:00", "ESTRATO": 2 }, "geometry": { "type": "Point", "coordinates": [ -76.520557, 3.448852 ] } },
{ "type": "Feature", "properties": { "DELITO": "HURTO", "TIPO_HURTO": "HURTO A ESTABLECIMIENTOS", "MODALIDAD": "VIOLACION DE CERRADURA", "COMUNA": 9, "NOM_COMUNA": "COMUNA 9", "BARRIO": 910, "NOM_BARRIO": "Barrio Obrero", "DIRECCION": "76001 CALLE 22A 11 31", "SITIO": "LOCAL COMERCIAL", "X": -76.520813, "Y": 3.448598, "FECHA_HECH": "2023-02-19T00:00:00", "HORA_HECHO": "22:00", "ESTRATO": 2 }, "geometry": { "type": "Point", "coordinates": [ -76.520813, 3.448598 ] } },
{ "type": "Feature", "properties": { "DELITO": "HURTO", "TIPO_HURTO": "HURTO A PERSONAS", "MODALIDAD": "ATRACO", "COMUNA": 9, "NOM_COMUNA": "COMUNA 9", "BARRIO": 910, "NOM_BARRIO": "Barrio Obrero", "DIRECCION": "76001 Carrera 11B, Barrio Obrero, Comuna 9, Cali, Valle del Cauca, COL,BARRIO OBRERO", "SITIO": "SIN INFORMACION", "X": -76.519655, "Y": 3.448086, "FECHA_HECH": "2023-05-04T00:00:00", "HORA_HECHO": "11:00", "ESTRATO": 2 }, "geometry": { "type": "Point", "coordinates": [ -76.519655, 3.448086 ] } },
{ "type": "Feature", "properties": { "DELITO": "HURTO", "TIPO_HURTO": "HURTO A PERSONAS", "MODALIDAD": "ATRACO", "COMUNA": 9, "NOM_COMUNA": "COMUNA 9", "BARRIO": 910, "NOM_BARRIO": "Barrio Obrero", "DIRECCION": "76001 Barrio Obrero, Comuna 9, Cali, Valle del Cauca, COL,BARRIO OBRERO", "SITIO": "SIN INFORMACION", "X": -76.520508, "Y": 3.44818, "FECHA_HECH": "2023-10-01T00:00:00", "HORA_HECHO": "23:55", "ESTRATO": 2 }, "geometry": { "type": "Point", "coordinates": [ -76.520508, 3.44818 ] } },
{ "type": "Feature", "properties": { "DELITO": "HURTO", "TIPO_HURTO": "HURTO A PERSONAS", "MODALIDAD": "RAPONAZO", "COMUNA": 9, "NOM_COMUNA": "COMUNA 9", "BARRIO": 910, "NOM_BARRIO": "Barrio Obrero", "DIRECCION": "76001 CALLE 24 CON CARRERA 11, BARRIO OBRERO, COMUNA 9, CALI, VALLE DEL CAUCA", "SITIO": "VIA PUBLICA", "X": -76.51923, "Y": 3.44925, "FECHA_HECH": "2023-08-30T00:00:00", "HORA_HECHO": "06:30", "ESTRATO": 2 }, "geometry": { "type": "Point", "coordinates": [ -76.51923, 3.44925 ] } },
{ "type": "Feature", "properties": { "DELITO": "HURTO", "TIPO_HURTO": "HURTO A ESTABLECIMIENTOS", "MODALIDAD": "FACTOR DE OPORTUNIDAD", "COMUNA": 9, "NOM_COMUNA": "COMUNA 9", "BARRIO": 910, "NOM_BARRIO": "Barrio Obrero", "DIRECCION": "76001 NO REPORTA CARRERA 11 B No 22 A 46", "SITIO": "SIN INFORMACION", "X": -76.52055, "Y": 3.448386, "FECHA_HECH": "2023-01-05T00:00:00", "HORA_HECHO": "03:30", "ESTRATO": 2 }, "geometry": { "type": "Point", "coordinates": [ -76.52055, 3.448386 ] } },
{ "type": "Feature", "properties": { "DELITO": "HURTO", "TIPO_HURTO": "HURTO DE MOTOCICLETAS", "MODALIDAD": "HALADO", "COMUNA": 9, "NOM_COMUNA": "COMUNA 9", "BARRIO": 910, "NOM_BARRIO": "Barrio Obrero", "DIRECCION": "76001 AVENIDA MIGUEL LÓPEZ MUÑOZ 35", "SITIO": "VIA PUBLICA", "X": -76.518257, "Y": 3.448258, "FECHA_HECH": "2023-01-10T00:00:00", "HORA_HECHO": "00:00", "ESTRATO": 2 }, "geometry": { "type": "Point", "coordinates": [ -76.518257, 3.448258 ] } },
{ "type": "Feature", "properties": { "DELITO": "HURTO", "TIPO_HURTO": "HURTO DE VEHICULOS", "MODALIDAD": "HALADO", "COMUNA": 9, "NOM_COMUNA": "COMUNA 9", "BARRIO": 910, "NOM_BARRIO": "Barrio Obrero", "DIRECCION": "76001 Carrera 11B, Barrio Obrero, Comuna 9, Cali, Valle del Cauca, COL,BARRIO OBRERO", "SITIO": "SIN INFORMACION", "X": -76.520215, "Y": 3.448145, "FECHA_HECH": "2023-07-20T00:00:00", "HORA_HECHO": "09:00", "ESTRATO": 2 }, "geometry": { "type": "Point", "coordinates": [ -76.520215, 3.448145 ] } },
{ "type": "Feature", "properties": { "DELITO": "HURTO", "TIPO_HURTO": "HURTO A ESTABLECIMIENTOS", "MODALIDAD": "FACTOR DE OPORTUNIDAD", "COMUNA": 9, "NOM_COMUNA": "COMUNA 9", "BARRIO": 910, "NOM_BARRIO": "Barrio Obrero", "DIRECCION": "76001 Calle 23 11B 47, Barrio Obrero, Comuna 9, Cali, Valle del Cauca, COL,BARRIO OBRERO", "SITIO": "SIN INFORMACION", "X": -76.519734, "Y": 3.447855, "FECHA_HECH": "2023-02-24T00:00:00", "HORA_HECHO": "21:00", "ESTRATO": 2 }, "geometry": { "type": "Point", "coordinates": [ -76.519734, 3.447855 ] } },
{ "type": "Feature", "properties": { "DELITO": "HURTO", "TIPO_HURTO": "HURTO A PERSONAS", "MODALIDAD": "ATRACO", "COMUNA": 9, "NOM_COMUNA": "COMUNA 9", "BARRIO": 910, "NOM_BARRIO": "Barrio Obrero", "DIRECCION": "76001 Calle 23, Barrio Obrero, Comuna 9, Cali, Valle del Cauca, COL,BARRIO OBRERO", "SITIO": "SIN INFORMACION", "X": -76.519938, "Y": 3.448503, "FECHA_HECH": "2023-09-10T00:00:00", "HORA_HECHO": "05:00", "ESTRATO": 2 }, "geometry": { "type": "Point", "coordinates": [ -76.519938, 3.448503 ] } },
{ "type": "Feature", "properties": { "DELITO": "HURTO", "TIPO_HURTO": "HURTO A PERSONAS", "MODALIDAD": "RAPONAZO", "COMUNA": 9, "NOM_COMUNA": "COMUNA 9", "BARRIO": 910, "NOM_BARRIO": "Barrio Obrero", "DIRECCION": "76001 Carrera 11 24 12, Barrio Obrero, Comuna 9, Cali, Valle del Cauca, COL,BARRIO OBRERO", "SITIO": "SIN INFORMACION", "X": -76.519081, "Y": 3.449229, "FECHA_HECH": "2023-08-11T00:00:00", "HORA_HECHO": "14:00", "ESTRATO": 2 }, "geometry": { "type": "Point", "coordinates": [ -76.519081, 3.449229 ] } },
{ "type": "Feature", "properties": { "DELITO": "HURTO", "TIPO_HURTO": "HURTO A PERSONAS", "MODALIDAD": "ATRACO", "COMUNA": 9, "NOM_COMUNA": "COMUNA 9", "BARRIO": 910, "NOM_BARRIO": "Barrio Obrero", "DIRECCION": "76001 Calle 23 11D 65, Barrio Obrero, Comuna 9, Cali, Valle del Cauca, COL,BARRIO OBRERO", "SITIO": "SIN INFORMACION", "X": -76.519526, "Y": 3.446883, "FECHA_HECH": "2023-02-06T00:00:00", "HORA_HECHO": "08:10", "ESTRATO": 2 }, "geometry": { "type": "Point", "coordinates": [ -76.519526, 3.446883 ] } },
{ "type": "Feature", "properties": { "DELITO": "HURTO", "TIPO_HURTO": "HURTO DE MOTOCICLETAS", "MODALIDAD": "ATRACO", "COMUNA": 9, "NOM_COMUNA": "COMUNA 9", "BARRIO": 910, "NOM_BARRIO": "Barrio Obrero", "DIRECCION": "76001 CARRERA 12 23 61", "SITIO": "VIA PUBLICA", "X": -76.519102, "Y": 3.447004, "FECHA_HECH": "2023-05-13T00:00:00", "HORA_HECHO": "04:00", "ESTRATO": 2 }, "geometry": { "type": "Point", "coordinates": [ -76.519102, 3.447004 ] } },
{ "type": "Feature", "properties": { "DELITO": "HURTO", "TIPO_HURTO": "HURTO A PERSONAS", "MODALIDAD": "VIOLACION DE CERRADURA", "COMUNA": 9, "NOM_COMUNA": "COMUNA 9", "BARRIO": 910, "NOM_BARRIO": "Barrio Obrero", "DIRECCION": "76001 CL 25 CON CON KR 12  CALLE 25 CARRERA 12", "SITIO": "SIN INFORMACION", "X": -76.518776, "Y": 3.446829, "FECHA_HECH": "2023-06-06T00:00:00", "HORA_HECHO": "11:30", "ESTRATO": 2 }, "geometry": { "type": "Point", "coordinates": [ -76.518776, 3.446829 ] } },
{ "type": "Feature", "properties": { "DELITO": "HURTO", "TIPO_HURTO": "HURTO A PERSONAS", "MODALIDAD": "COSQUILLEO", "COMUNA": 9, "NOM_COMUNA": "COMUNA 9", "BARRIO": 910, "NOM_BARRIO": "Barrio Obrero", "DIRECCION": "76001 El Camionerito, Carrera 11, Barrio Obrero, Comuna 9, Cali, Valle del Cauca, COL,BARRIO OBRERO", "SITIO": "SIN INFORMACION", "X": -76.518814, "Y": 3.449222, "FECHA_HECH": "2023-01-12T00:00:00", "HORA_HECHO": "13:55", "ESTRATO": 2 }, "geometry": { "type": "Point", "coordinates": [ -76.518814, 3.449222 ] } },
{ "type": "Feature", "properties": { "DELITO": "HURTO", "TIPO_HURTO": "HURTO A PERSONAS", "MODALIDAD": "FACTOR DE OPORTUNIDAD", "COMUNA": 9, "NOM_COMUNA": "COMUNA 9", "BARRIO": 910, "NOM_BARRIO": "Barrio Obrero", "DIRECCION": "76001 Calle 24 11D 48, Barrio Obrero, Comuna 9, Cali, Valle del Cauca, COL,BARRIO OBRERO", "SITIO": "SIN INFORMACION", "X": -76.518834, "Y": 3.447163, "FECHA_HECH": "2023-03-01T00:00:00", "HORA_HECHO": "11:50", "ESTRATO": 2 }, "geometry": { "type": "Point", "coordinates": [ -76.518834, 3.447163 ] } },
{ "type": "Feature", "properties": { "DELITO": "HURTO", "TIPO_HURTO": "HURTO DE MOTOCICLETAS", "MODALIDAD": "HALADO", "COMUNA": 9, "NOM_COMUNA": "COMUNA 9", "BARRIO": 910, "NOM_BARRIO": "Barrio Obrero", "DIRECCION": "76001 CALLE 23 11B 5, BARRIO OBRERO, COMUNA 9, CALI, VALLE DEL CAUCA", "SITIO": "ZONA DE PARQUEO", "X": -76.519804, "Y": 3.448158, "FECHA_HECH": "2023-04-15T00:00:00", "HORA_HECHO": "00:00", "ESTRATO": 2 }, "geometry": { "type": "Point", "coordinates": [ -76.519804, 3.448158 ] } },
{ "type": "Feature", "properties": { "DELITO": "HURTO", "TIPO_HURTO": "HURTO A PERSONAS", "MODALIDAD": "RAPONAZO", "COMUNA": 9, "NOM_COMUNA": "COMUNA 9", "BARRIO": 910, "NOM_BARRIO": "Barrio Obrero", "DIRECCION": "76001 Radiadores Exostos, Calle 25 11D, Barrio Obrero, Comuna 9, Cali, Valle del Cauca, COL,BARRIO OBRERO", "SITIO": "SIN INFORMACION", "X": -76.518449, "Y": 3.446835, "FECHA_HECH": "2023-04-08T00:00:00", "HORA_HECHO": "19:40", "ESTRATO": 2 }, "geometry": { "type": "Point", "coordinates": [ -76.518449, 3.446835 ] } },
{ "type": "Feature", "properties": { "DELITO": "HURTO", "TIPO_HURTO": "HURTO A PERSONAS", "MODALIDAD": "COSQUILLEO", "COMUNA": 9, "NOM_COMUNA": "COMUNA 9", "BARRIO": 910, "NOM_BARRIO": "Barrio Obrero", "DIRECCION": "76001 Calle 23, Barrio Obrero, Comuna 9, Cali, Valle del Cauca, COL,BARRIO OBRERO", "SITIO": "SIN INFORMACION", "X": -76.51959, "Y": 3.447968, "FECHA_HECH": "2023-01-04T00:00:00", "HORA_HECHO": "01:30", "ESTRATO": 2 }, "geometry": { "type": "Point", "coordinates": [ -76.51959, 3.447968 ] } },
{ "type": "Feature", "properties": { "DELITO": "HURTO", "TIPO_HURTO": "HURTO A PERSONAS", "MODALIDAD": "FACTOR DE OPORTUNIDAD", "COMUNA": 9, "NOM_COMUNA": "COMUNA 9", "BARRIO": 910, "NOM_BARRIO": "Barrio Obrero", "DIRECCION": "76001 Carrera 11 23 2-98, Barrio Obrero, Comuna 9, Cali, Valle del Cauca, COL,BARRIO OBRERO", "SITIO": "SIN INFORMACION", "X": -76.519672, "Y": 3.449126, "FECHA_HECH": "2023-02-21T00:00:00", "HORA_HECHO": "10:22", "ESTRATO": 2 }, "geometry": { "type": "Point", "coordinates": [ -76.519672, 3.449126 ] } },
{ "type": "Feature", "properties": { "DELITO": "HURTO", "TIPO_HURTO": "HURTO DE MOTOCICLETAS", "MODALIDAD": "HALADO", "COMUNA": 9, "NOM_COMUNA": "COMUNA 9", "BARRIO": 910, "NOM_BARRIO": "Barrio Obrero", "DIRECCION": "76001 CARRERA 11D 22A 69, BARRIO OBRERO, COMUNA 9, CALI, VALLE DEL CAUCA", "SITIO": "DOMICILIO", "X": -76.519984, "Y": 3.447406, "FECHA_HECH": "2023-11-29T00:00:00", "HORA_HECHO": "00:00", "ESTRATO": 2 }, "geometry": { "type": "Point", "coordinates": [ -76.519984, 3.447406 ] } },
{ "type": "Feature", "properties": { "DELITO": "HURTO", "TIPO_HURTO": "HURTO A PERSONAS", "MODALIDAD": "ATRACO", "COMUNA": 9, "NOM_COMUNA": "COMUNA 9", "BARRIO": 910, "NOM_BARRIO": "Barrio Obrero", "DIRECCION": "76001 Calle 23, Barrio Obrero, Comuna 9, Cali, Valle del Cauca, COL,BARRIO OBRERO", "SITIO": "SIN INFORMACION", "X": -76.519938, "Y": 3.448503, "FECHA_HECH": "2023-07-05T00:00:00", "HORA_HECHO": "15:20", "ESTRATO": 2 }, "geometry": { "type": "Point", "coordinates": [ -76.519938, 3.448503 ] } },
{ "type": "Feature", "properties": { "DELITO": "HURTO", "TIPO_HURTO": "HURTO A ESTABLECIMIENTOS", "MODALIDAD": "FACTOR DE OPORTUNIDAD", "COMUNA": 9, "NOM_COMUNA": "COMUNA 9", "BARRIO": 910, "NOM_BARRIO": "Barrio Obrero", "DIRECCION": "76001 Carrera 11D 23 49, Barrio Obrero, Comuna 9, Cali, Valle del Cauca, COL,BARRIO OBRERO", "SITIO": "SIN INFORMACION", "X": -76.519299, "Y": 3.44755, "FECHA_HECH": "2023-03-28T00:00:00", "HORA_HECHO": "09:00", "ESTRATO": 2 }, "geometry": { "type": "Point", "coordinates": [ -76.519299, 3.44755 ] } },
{ "type": "Feature", "properties": { "DELITO": "HURTO", "TIPO_HURTO": "HURTO A PERSONAS", "MODALIDAD": "COSQUILLEO", "COMUNA": 9, "NOM_COMUNA": "COMUNA 9", "BARRIO": 910, "NOM_BARRIO": "Barrio Obrero", "DIRECCION": "76001 Carrera 11, Barrio Obrero, Comuna 9, Cali, Valle del Cauca, COL,BARRIO OBRERO", "SITIO": "SIN INFORMACION", "X": -76.520444, "Y": 3.448702, "FECHA_HECH": "2023-02-01T00:00:00", "HORA_HECHO": "14:00", "ESTRATO": 2 }, "geometry": { "type": "Point", "coordinates": [ -76.520444, 3.448702 ] } },
{ "type": "Feature", "properties": { "DELITO": "HURTO", "TIPO_HURTO": "HURTO A PERSONAS", "MODALIDAD": "ATRACO", "COMUNA": 9, "NOM_COMUNA": "COMUNA 9", "BARRIO": 910, "NOM_BARRIO": "Barrio Obrero", "DIRECCION": "76001 Carrera 11, Barrio Obrero, Comuna 9, Cali, Valle del Cauca, COL,BARRIO OBRERO", "SITIO": "SIN INFORMACION", "X": -76.520102, "Y": 3.449051, "FECHA_HECH": "2023-01-13T00:00:00", "HORA_HECHO": "13:58", "ESTRATO": 2 }, "geometry": { "type": "Point", "coordinates": [ -76.520102, 3.449051 ] } },
{ "type": "Feature", "properties": { "DELITO": "HURTO", "TIPO_HURTO": "HURTO A ESTABLECIMIENTOS", "MODALIDAD": "ATRACO", "COMUNA": 9, "NOM_COMUNA": "COMUNA 9", "BARRIO": 910, "NOM_BARRIO": "Barrio Obrero", "DIRECCION": "76001 CARRERA 12 22A 33, BARRIO OBRERO, COMUNA 9, CALI, VALLE DEL CAUCA", "SITIO": "ESTABLECIMIENTO DE COMERCIO", "X": -76.520078, "Y": 3.446499, "FECHA_HECH": "2023-06-17T00:00:00", "HORA_HECHO": "19:59", "ESTRATO": 2 }, "geometry": { "type": "Point", "coordinates": [ -76.520078, 3.446499 ] } },
{ "type": "Feature", "properties": { "DELITO": "HURTO", "TIPO_HURTO": "HURTO A CELULARES", "MODALIDAD": "ATRACO", "COMUNA": 9, "NOM_COMUNA": "COMUNA 9", "BARRIO": 910, "NOM_BARRIO": "Barrio Obrero", "DIRECCION": "76001 CALLE 23 11D 10", "SITIO": "VIA PUBLICA", "X": -76.51969, "Y": 3.447256, "FECHA_HECH": "2024-04-17T00:00:00", "HORA_HECHO": "08:00", "ESTRATO": 2 }, "geometry": { "type": "Point", "coordinates": [ -76.51969, 3.447256 ] } },
{ "type": "Feature", "properties": { "DELITO": "HURTO", "TIPO_HURTO": "HURTO A PERSONAS", "MODALIDAD": "VIOLACION DE CERRADURA", "COMUNA": 9, "NOM_COMUNA": "COMUNA 9", "BARRIO": 910, "NOM_BARRIO": "Barrio Obrero", "DIRECCION": "76001 Calle 23, Barrio Obrero, Cali, Valle del Cauca, COL,BARRIO OBRERO", "SITIO": "SIN INFORMACION", "X": -76.519938, "Y": 3.448419, "FECHA_HECH": "2024-06-15T00:00:00", "HORA_HECHO": "19:00", "ESTRATO": 2 }, "geometry": { "type": "Point", "coordinates": [ -76.519938, 3.448419 ] } },
{ "type": "Feature", "properties": { "DELITO": "HURTO", "TIPO_HURTO": "HURTO A ESTABLECIMIENTOS", "MODALIDAD": "FACTOR DE OPORTUNIDAD", "COMUNA": 9, "NOM_COMUNA": "COMUNA 9", "BARRIO": 910, "NOM_BARRIO": "Barrio Obrero", "DIRECCION": "76001 Calle 23 11B 47, Barrio Obrero, Comuna 9, Cali, Valle del Cauca, COL,BARRIO OBRERO", "SITIO": "SIN INFORMACION", "X": -76.519734, "Y": 3.447855, "FECHA_HECH": "2024-02-15T00:00:00", "HORA_HECHO": "05:04", "ESTRATO": 2 }, "geometry": { "type": "Point", "coordinates": [ -76.519734, 3.447855 ] } },
{ "type": "Feature", "properties": { "DELITO": "HURTO", "TIPO_HURTO": "HURTO A ESTABLECIMIENTOS", "MODALIDAD": "FACTOR DE OPORTUNIDAD", "COMUNA": 9, "NOM_COMUNA": "COMUNA 9", "BARRIO": 910, "NOM_BARRIO": "Barrio Obrero", "DIRECCION": "76001 CARRERA 10 23 03, SANTIAGO DE CALI, CALI, VALLE DEL CAUCA", "SITIO": "LUGAR DE TRABAJO", "X": -76.518678, "Y": 3.448957, "FECHA_HECH": "2024-07-08T00:00:00", "HORA_HECHO": "23:04", "ESTRATO": 2 }, "geometry": { "type": "Point", "coordinates": [ -76.518678, 3.448957 ] } },
{ "type": "Feature", "properties": { "DELITO": "HURTO", "TIPO_HURTO": "HURTO A PERSONAS", "MODALIDAD": "ATRACO", "COMUNA": 9, "NOM_COMUNA": "COMUNA 9", "BARRIO": 910, "NOM_BARRIO": "Barrio Obrero", "DIRECCION": "76001 CARRERA 11 22A 78", "SITIO": "VIA PUBLICA", "X": -76.52025, "Y": 3.448844, "FECHA_HECH": "2024-05-06T00:00:00", "HORA_HECHO": "05:00", "ESTRATO": 2 }, "geometry": { "type": "Point", "coordinates": [ -76.52025, 3.448844 ] } },
{ "type": "Feature", "properties": { "DELITO": "HURTO", "TIPO_HURTO": "HURTO A PERSONAS", "MODALIDAD": "ATRACO", "COMUNA": 9, "NOM_COMUNA": "COMUNA 9", "BARRIO": 910, "NOM_BARRIO": "Barrio Obrero", "DIRECCION": "76001 BARRIO/LOCALIDAD/COMUNA:BARRIO OBRERO/COMUNA 9,CALI/VALLE DEL CAUCA,BARRIO OBRERO", "SITIO": "SIN INFORMACION", "X": -76.519429, "Y": 3.449198, "FECHA_HECH": "2024-08-16T00:00:00", "HORA_HECHO": "03:28", "ESTRATO": 2 }, "geometry": { "type": "Point", "coordinates": [ -76.519429, 3.449198 ] } },
{ "type": "Feature", "properties": { "DELITO": "HURTO", "TIPO_HURTO": "HURTO A PERSONAS", "MODALIDAD": "ATRACO", "COMUNA": 9, "NOM_COMUNA": "COMUNA 9", "BARRIO": 910, "NOM_BARRIO": "Barrio Obrero", "DIRECCION": "76001 BARRIO/LOCALIDAD/COMUNA:BARRIO OBRERO/COMUNA 9,CALI/VALLE DEL CAUCA,BARRIO OBRERO", "SITIO": "SIN INFORMACION", "X": -76.520165, "Y": 3.448718, "FECHA_HECH": "2024-08-23T00:00:00", "HORA_HECHO": "03:09", "ESTRATO": 2 }, "geometry": { "type": "Point", "coordinates": [ -76.520165, 3.448718 ] } },
{ "type": "Feature", "properties": { "DELITO": "HURTO", "TIPO_HURTO": "HURTO A PERSONAS", "MODALIDAD": "ATRACO", "COMUNA": 9, "NOM_COMUNA": "COMUNA 9", "BARRIO": 910, "NOM_BARRIO": "Barrio Obrero", "DIRECCION": "76001 BARRIO/LOCALIDAD/COMUNA:BARRIO OBRERO/COMUNA 9,CALI/VALLE DEL CAUCA,BARRIO OBRERO", "SITIO": "SIN INFORMACION", "X": -76.520442, "Y": 3.448658, "FECHA_HECH": "2024-09-28T00:00:00", "HORA_HECHO": "05:59", "ESTRATO": 2 }, "geometry": { "type": "Point", "coordinates": [ -76.520442, 3.448658 ] } },
{ "type": "Feature", "properties": { "DELITO": "HURTO", "TIPO_HURTO": "HURTO A PERSONAS", "MODALIDAD": "ATRACO", "COMUNA": 9, "NOM_COMUNA": "COMUNA 9", "BARRIO": 910, "NOM_BARRIO": "Barrio Obrero", "DIRECCION": "76001 CALLE 22A 11 77", "SITIO": "VIA PUBLICA", "X": -76.520704, "Y": 3.448271, "FECHA_HECH": "2024-11-17T00:00:00", "HORA_HECHO": "04:00", "ESTRATO": 2 }, "geometry": { "type": "Point", "coordinates": [ -76.520704, 3.448271 ] } },
{ "type": "Feature", "properties": { "DELITO": "HURTO", "TIPO_HURTO": "HURTO A PERSONAS", "MODALIDAD": "FACTOR DE OPORTUNIDAD", "COMUNA": 9, "NOM_COMUNA": "COMUNA 9", "BARRIO": 910, "NOM_BARRIO": "Barrio Obrero", "DIRECCION": "76001 Carrera 11, Barrio Obrero, Comuna 9, Cali, Valle del Cauca, COL,BARRIO OBRERO", "SITIO": "SIN INFORMACION", "X": -76.520615, "Y": 3.448801, "FECHA_HECH": "2024-03-02T00:00:00", "HORA_HECHO": "05:24", "ESTRATO": 2 }, "geometry": { "type": "Point", "coordinates": [ -76.520615, 3.448801 ] } },
{ "type": "Feature", "properties": { "DELITO": "HURTO", "TIPO_HURTO": "HURTO A PERSONAS", "MODALIDAD": "ATRACO", "COMUNA": 9, "NOM_COMUNA": "COMUNA 9", "BARRIO": 910, "NOM_BARRIO": "Barrio Obrero", "DIRECCION": "76001 BARRIO/LOCALIDAD/COMUNA:BARRIO OBRERO/COMUNA 9,CALI/VALLE DEL CAUCA,BARRIO OBRERO", "SITIO": "SIN INFORMACION", "X": -76.519418, "Y": 3.448724, "FECHA_HECH": "2024-03-06T00:00:00", "HORA_HECHO": "11:12", "ESTRATO": 2 }, "geometry": { "type": "Point", "coordinates": [ -76.519418, 3.448724 ] } },
{ "type": "Feature", "properties": { "DELITO": "HURTO", "TIPO_HURTO": "HURTO A PERSONAS", "MODALIDAD": "ATRACO", "COMUNA": 9, "NOM_COMUNA": "COMUNA 9", "BARRIO": 910, "NOM_BARRIO": "Barrio Obrero", "DIRECCION": "76001 CALLE 23 7-34, BARRIO OBRERO, CALI, VALLE DEL CAUCA, COL,BARRIO OBRERO", "SITIO": "VIA PUBLICA", "X": -76.519512, "Y": 3.446588, "FECHA_HECH": "2024-03-13T00:00:00", "HORA_HECHO": "14:30", "ESTRATO": 2 }, "geometry": { "type": "Point", "coordinates": [ -76.519512, 3.446588 ] } },
{ "type": "Feature", "properties": { "DELITO": "HURTO", "TIPO_HURTO": "HURTO A PERSONAS", "MODALIDAD": "FACTOR DE OPORTUNIDAD", "COMUNA": 9, "NOM_COMUNA": "COMUNA 9", "BARRIO": 910, "NOM_BARRIO": "Barrio Obrero", "DIRECCION": "76001 Calle 23, Barrio Obrero, Cali, Valle del Cauca, COL,BARRIO OBRERO", "SITIO": "SIN INFORMACION", "X": -76.519938, "Y": 3.448419, "FECHA_HECH": "2024-04-08T00:00:00", "HORA_HECHO": "18:30", "ESTRATO": 2 }, "geometry": { "type": "Point", "coordinates": [ -76.519938, 3.448419 ] } },
{ "type": "Feature", "properties": { "DELITO": "HURTO", "TIPO_HURTO": "HURTO A ESTABLECIMIENTOS", "MODALIDAD": "ATRACO", "COMUNA": 9, "NOM_COMUNA": "COMUNA 9", "BARRIO": 910, "NOM_BARRIO": "Barrio Obrero", "DIRECCION": "76001 CALLE 22A 11 05, SANTIAGO DE CALI, CALI, VALLE DEL CAUCA", "SITIO": "ESTABLECIMIENTO DE COMERCIO", "X": -76.520762, "Y": 3.448797, "FECHA_HECH": "2024-06-07T00:00:00", "HORA_HECHO": "11:30", "ESTRATO": 2 }, "geometry": { "type": "Point", "coordinates": [ -76.520762, 3.448797 ] } },
{ "type": "Feature", "properties": { "DELITO": "HURTO", "TIPO_HURTO": "HURTO A PERSONAS", "MODALIDAD": "FACTOR DE OPORTUNIDAD", "COMUNA": 9, "NOM_COMUNA": "COMUNA 9", "BARRIO": 910, "NOM_BARRIO": "Barrio Obrero", "DIRECCION": "76001 Barrio Obrero, Cali, Valle del Cauca, COL,BARRIO OBRERO", "SITIO": "SIN INFORMACION", "X": -76.520529, "Y": 3.448278, "FECHA_HECH": "2024-06-16T00:00:00", "HORA_HECHO": "13:02", "ESTRATO": 2 }, "geometry": { "type": "Point", "coordinates": [ -76.520529, 3.448278 ] } },
{ "type": "Feature", "properties": { "DELITO": "HURTO", "TIPO_HURTO": "HURTO A PERSONAS", "MODALIDAD": "ATRACO", "COMUNA": 9, "NOM_COMUNA": "COMUNA 9", "BARRIO": 910, "NOM_BARRIO": "Barrio Obrero", "DIRECCION": "76001 Barrio Obrero, Cali, Valle del Cauca, COL,BARRIO OBRERO", "SITIO": "SIN INFORMACION", "X": -76.520529, "Y": 3.448278, "FECHA_HECH": "2024-07-18T00:00:00", "HORA_HECHO": "01:00", "ESTRATO": 2 }, "geometry": { "type": "Point", "coordinates": [ -76.520529, 3.448278 ] } },
{ "type": "Feature", "properties": { "DELITO": "HURTO", "TIPO_HURTO": "HURTO A ESTABLECIMIENTOS", "MODALIDAD": "ATRACO", "COMUNA": 9, "NOM_COMUNA": "COMUNA 9", "BARRIO": 910, "NOM_BARRIO": "Barrio Obrero", "DIRECCION": "76001 Calle 23 11 68, Santiago De Cali, Cali, Valle Del Cauca, COL,BARRIO OBRERO", "SITIO": "SIN INFORMACION", "X": -76.52054, "Y": 3.448779, "FECHA_HECH": "2024-08-04T00:00:00", "HORA_HECHO": "05:38", "ESTRATO": 2 }, "geometry": { "type": "Point", "coordinates": [ -76.52054, 3.448779 ] } },
{ "type": "Feature", "properties": { "DELITO": "HURTO", "TIPO_HURTO": "HURTO A ESTABLECIMIENTOS", "MODALIDAD": "VIOLACION DE CERRADURA", "COMUNA": 9, "NOM_COMUNA": "COMUNA 9", "BARRIO": 910, "NOM_BARRIO": "Barrio Obrero", "DIRECCION": "76001 Calle 23 11B-47, Barrio Obrero, Cali, Valle del Cauca, COL,BARRIO OBRERO", "SITIO": "SIN INFORMACION", "X": -76.519855, "Y": 3.447778, "FECHA_HECH": "2024-08-15T00:00:00", "HORA_HECHO": "08:30", "ESTRATO": 2 }, "geometry": { "type": "Point", "coordinates": [ -76.519855, 3.447778 ] } },
{ "type": "Feature", "properties": { "DELITO": "HURTO", "TIPO_HURTO": "HURTO DE MOTOCICLETAS", "MODALIDAD": "HALADO", "COMUNA": 9, "NOM_COMUNA": "COMUNA 9", "BARRIO": 910, "NOM_BARRIO": "Barrio Obrero", "DIRECCION": "76001 CARRERA 11B 23 47, SANTIAGO DE CALI, CALI, VALLE DEL CAUCA", "SITIO": "VIA PUBLICA", "X": -76.519637, "Y": 3.448972, "FECHA_HECH": "2024-09-23T00:00:00", "HORA_HECHO": "11:30", "ESTRATO": 2 }, "geometry": { "type": "Point", "coordinates": [ -76.519637, 3.448972 ] } },
{ "type": "Feature", "properties": { "DELITO": "HURTO", "TIPO_HURTO": "HURTO A PERSONAS", "MODALIDAD": "COSQUILLEO", "COMUNA": 9, "NOM_COMUNA": "COMUNA 9", "BARRIO": 910, "NOM_BARRIO": "Barrio Obrero", "DIRECCION": "76001 CARRERA 12 22A 83", "SITIO": "TRANSPORTE MASIVO", "X": -76.519758, "Y": 3.446694, "FECHA_HECH": "2024-10-15T00:00:00", "HORA_HECHO": "06:30", "ESTRATO": 2 }, "geometry": { "type": "Point", "coordinates": [ -76.519758, 3.446694 ] } },
{ "type": "Feature", "properties": { "DELITO": "HURTO", "TIPO_HURTO": "HURTO A ESTABLECIMIENTOS", "MODALIDAD": "VIOLACION DE CERRADURA", "COMUNA": 9, "NOM_COMUNA": "COMUNA 9", "BARRIO": 910, "NOM_BARRIO": "Barrio Obrero", "DIRECCION": "76001 Calle 25 6-50, Barrio Obrero, Cali, Valle del Cauca, COL,BARRIO OBRERO", "SITIO": "SIN INFORMACION", "X": -76.518362, "Y": 3.447622, "FECHA_HECH": "2024-11-20T00:00:00", "HORA_HECHO": "09:53", "ESTRATO": 2 }, "geometry": { "type": "Point", "coordinates": [ -76.518362, 3.447622 ] } },
{ "type": "Feature", "properties": { "DELITO": "HURTO", "TIPO_HURTO": "HURTO A CELULARES", "MODALIDAD": "RAPONAZO", "COMUNA": 9, "NOM_COMUNA": "COMUNA 9", "BARRIO": 910, "NOM_BARRIO": "Barrio Obrero", "DIRECCION": "76001 CALLE 25 11D 86", "SITIO": "VIA PUBLICA", "X": -76.518458, "Y": 3.446967, "FECHA_HECH": "2024-04-24T00:00:00", "HORA_HECHO": "02:30", "ESTRATO": 2 }, "geometry": { "type": "Point", "coordinates": [ -76.518458, 3.446967 ] } },
{ "type": "Feature", "properties": { "DELITO": "HURTO", "TIPO_HURTO": "HURTO A PERSONAS", "MODALIDAD": "VIOLACION DE CERRADURA", "COMUNA": 9, "NOM_COMUNA": "COMUNA 9", "BARRIO": 910, "NOM_BARRIO": "Barrio Obrero", "DIRECCION": "76001 Calle 23 30-2, Barrio Obrero, Cali, Valle del Cauca, COL,BARRIO OBRERO", "SITIO": "SIN INFORMACION", "X": -76.519512, "Y": 3.446588, "FECHA_HECH": "2024-04-15T00:00:00", "HORA_HECHO": "03:24", "ESTRATO": 2 }, "geometry": { "type": "Point", "coordinates": [ -76.519512, 3.446588 ] } },
{ "type": "Feature", "properties": { "DELITO": "HURTO", "TIPO_HURTO": "HURTO A PERSONAS", "MODALIDAD": "ATRACO", "COMUNA": 9, "NOM_COMUNA": "COMUNA 9", "BARRIO": 910, "NOM_BARRIO": "Barrio Obrero", "DIRECCION": "76001 Calle 24, Barrio Obrero, Cali, Valle del Cauca, COL,BARRIO OBRERO", "SITIO": "SIN INFORMACION", "X": -76.518919, "Y": 3.447944, "FECHA_HECH": "2024-05-01T00:00:00", "HORA_HECHO": "15:47", "ESTRATO": 2 }, "geometry": { "type": "Point", "coordinates": [ -76.518919, 3.447944 ] } },
{ "type": "Feature", "properties": { "DELITO": "HURTO", "TIPO_HURTO": "HURTO A ESTABLECIMIENTOS", "MODALIDAD": "VENTOSA", "COMUNA": 9, "NOM_COMUNA": "COMUNA 9", "BARRIO": 910, "NOM_BARRIO": "Barrio Obrero", "DIRECCION": "76001 CALLE 23 11B 54", "SITIO": "ESTABLECIMIENTO DE SALUD", "X": -76.519835, "Y": 3.447785, "FECHA_HECH": "2024-08-07T00:00:00", "HORA_HECHO": "01:30", "ESTRATO": 2 }, "geometry": { "type": "Point", "coordinates": [ -76.519835, 3.447785 ] } },
{ "type": "Feature", "properties": { "DELITO": "HURTO", "TIPO_HURTO": "HURTO A PERSONAS", "MODALIDAD": "ATRACO", "COMUNA": 9, "NOM_COMUNA": "COMUNA 9", "BARRIO": 910, "NOM_BARRIO": "Barrio Obrero", "DIRECCION": "76001 CARRERA 11D, BARRIO OBRERO, CALI, VALLE DEL CAUCA", "SITIO": "ESTABLECIMIENTO DE COMERCIO", "X": -76.52008, "Y": 3.447333, "FECHA_HECH": "2024-12-18T00:00:00", "HORA_HECHO": "20:00", "ESTRATO": 2 }, "geometry": { "type": "Point", "coordinates": [ -76.52008, 3.447333 ] } },
{ "type": "Feature", "properties": { "DELITO": "HURTO", "TIPO_HURTO": "HURTO DE VEHICULOS", "MODALIDAD": "ATRACO", "COMUNA": 9, "NOM_COMUNA": "COMUNA 9", "BARRIO": 910, "NOM_BARRIO": "Barrio Obrero", "DIRECCION": "76001 Barrio Obrero, Comuna 9, Cali, Valle del Cauca, COL,BARRIO OBRERO", "SITIO": "SIN INFORMACION", "X": -76.52029, "Y": 3.44812, "FECHA_HECH": "2024-01-26T00:00:00", "HORA_HECHO": "01:30", "ESTRATO": 2 }, "geometry": { "type": "Point", "coordinates": [ -76.52029, 3.44812 ] } },
{ "type": "Feature", "properties": { "DELITO": "HURTO", "TIPO_HURTO": "HURTO A PERSONAS", "MODALIDAD": "RAPONAZO", "COMUNA": 9, "NOM_COMUNA": "COMUNA 9", "BARRIO": 910, "NOM_BARRIO": "Barrio Obrero", "DIRECCION": "76001 CARRERA 11 22A 30, SANTIAGO DE CALI, CALI, VALLE DEL CAUCA", "SITIO": "VIA PUBLICA", "X": -76.520345, "Y": 3.448793, "FECHA_HECH": "2024-06-13T00:00:00", "HORA_HECHO": "05:06", "ESTRATO": 2 }, "geometry": { "type": "Point", "coordinates": [ -76.520345, 3.448793 ] } },
{ "type": "Feature", "properties": { "DELITO": "HURTO", "TIPO_HURTO": "HURTO A ESTABLECIMIENTOS", "MODALIDAD": "VIOLACION DE CERRADURA", "COMUNA": 9, "NOM_COMUNA": "COMUNA 9", "BARRIO": 910, "NOM_BARRIO": "Barrio Obrero", "DIRECCION": "76001 Calle 25 6-50, Barrio Obrero, Cali, Valle del Cauca, COL,BARRIO OBRERO", "SITIO": "SIN INFORMACION", "X": -76.518362, "Y": 3.447622, "FECHA_HECH": "2024-06-14T00:00:00", "HORA_HECHO": "17:10", "ESTRATO": 2 }, "geometry": { "type": "Point", "coordinates": [ -76.518362, 3.447622 ] } },
{ "type": "Feature", "properties": { "DELITO": "HURTO", "TIPO_HURTO": "HURTO A CELULARES", "MODALIDAD": "ENGAÑO", "COMUNA": 9, "NOM_COMUNA": "COMUNA 9", "BARRIO": 910, "NOM_BARRIO": "Barrio Obrero", "DIRECCION": "76001 Calle 23 11 68, Santiago De Cali, Cali, Valle Del Cauca, COL,BARRIO OBRERO", "SITIO": "SIN INFORMACION", "X": -76.520475, "Y": 3.448662, "FECHA_HECH": "2024-06-22T00:00:00", "HORA_HECHO": "19:00", "ESTRATO": 2 }, "geometry": { "type": "Point", "coordinates": [ -76.520475, 3.448662 ] } },
{ "type": "Feature", "properties": { "DELITO": "HURTO", "TIPO_HURTO": "HURTO A PERSONAS", "MODALIDAD": "ATRACO", "COMUNA": 9, "NOM_COMUNA": "COMUNA 9", "BARRIO": 910, "NOM_BARRIO": "Barrio Obrero", "DIRECCION": "76001 BARRIO/LOCALIDAD/COMUNA:BARRIO OBRERO/COMUNA 9,CALI/VALLE DEL CAUCA,BARRIO OBRERO", "SITIO": "VIA PUBLICA", "X": -76.520214, "Y": 3.448669, "FECHA_HECH": "2024-08-03T00:00:00", "HORA_HECHO": "11:00", "ESTRATO": 2 }, "geometry": { "type": "Point", "coordinates": [ -76.520214, 3.448669 ] } },
{ "type": "Feature", "properties": { "DELITO": "HURTO", "TIPO_HURTO": "HURTO A PERSONAS", "MODALIDAD": "FACTOR DE OPORTUNIDAD", "COMUNA": 9, "NOM_COMUNA": "COMUNA 9", "BARRIO": 910, "NOM_BARRIO": "Barrio Obrero", "DIRECCION": "76001 Carrera 11, Barrio Obrero, Comuna 9, Cali, Valle del Cauca, COL,BARRIO OBRERO", "SITIO": "SIN INFORMACION", "X": -76.520443, "Y": 3.448747, "FECHA_HECH": "2024-02-25T00:00:00", "HORA_HECHO": "11:00", "ESTRATO": 2 }, "geometry": { "type": "Point", "coordinates": [ -76.520443, 3.448747 ] } },
{ "type": "Feature", "properties": { "DELITO": "HURTO", "TIPO_HURTO": "HURTO A PERSONAS", "MODALIDAD": "ATRACO", "COMUNA": 9, "NOM_COMUNA": "COMUNA 9", "BARRIO": 910, "NOM_BARRIO": "Barrio Obrero", "DIRECCION": "76001 CALLE 22A 11-5, BARRIO OBRERO, CALI, VALLE DEL CAUCA", "SITIO": "VIA PUBLICA", "X": -76.520823, "Y": 3.448784, "FECHA_HECH": "2024-03-21T00:00:00", "HORA_HECHO": "23:23", "ESTRATO": 2 }, "geometry": { "type": "Point", "coordinates": [ -76.520823, 3.448784 ] } },
{ "type": "Feature", "properties": { "DELITO": "HURTO", "TIPO_HURTO": "HURTO A PERSONAS", "MODALIDAD": "ATRACO", "COMUNA": 9, "NOM_COMUNA": "COMUNA 9", "BARRIO": 910, "NOM_BARRIO": "Barrio Obrero", "DIRECCION": "76001 Barrio Obrero, Cali, Valle del Cauca, COL,BARRIO OBRERO", "SITIO": "SIN INFORMACION", "X": -76.52019, "Y": 3.44863, "FECHA_HECH": "2024-04-06T00:00:00", "HORA_HECHO": "14:30", "ESTRATO": 2 }, "geometry": { "type": "Point", "coordinates": [ -76.52019, 3.44863 ] } },
{ "type": "Feature", "properties": { "DELITO": "HURTO", "TIPO_HURTO": "HURTO A CELULARES", "MODALIDAD": "RAPONAZO", "COMUNA": 9, "NOM_COMUNA": "COMUNA 9", "BARRIO": 910, "NOM_BARRIO": "Barrio Obrero", "DIRECCION": "76001 CARRERA 11 CON CALLE 24, BARRIO OBRERO, CALI, VALLE DEL CAUCA", "SITIO": "VIA PUBLICA", "X": -76.519238, "Y": 3.449248, "FECHA_HECH": "2024-04-29T00:00:00", "HORA_HECHO": "07:00", "ESTRATO": 2 }, "geometry": { "type": "Point", "coordinates": [ -76.519238, 3.449248 ] } },
{ "type": "Feature", "properties": { "DELITO": "HURTO", "TIPO_HURTO": "HURTO A PERSONAS", "MODALIDAD": "FACTOR DE OPORTUNIDAD", "COMUNA": 9, "NOM_COMUNA": "COMUNA 9", "BARRIO": 910, "NOM_BARRIO": "Barrio Obrero", "DIRECCION": "76001 Barrio Obrero, Cali, Valle del Cauca, COL,BARRIO OBRERO", "SITIO": "SIN INFORMACION", "X": -76.520529, "Y": 3.448278, "FECHA_HECH": "2024-07-16T00:00:00", "HORA_HECHO": "21:30", "ESTRATO": 2 }, "geometry": { "type": "Point", "coordinates": [ -76.520529, 3.448278 ] } },
{ "type": "Feature", "properties": { "DELITO": "HURTO", "TIPO_HURTO": "HURTO A ESTABLECIMIENTOS", "MODALIDAD": "FACTOR DE OPORTUNIDAD", "COMUNA": 9, "NOM_COMUNA": "COMUNA 9", "BARRIO": 910, "NOM_BARRIO": "Barrio Obrero", "DIRECCION": "76001 Calle 23 11B-47, Barrio Obrero, Cali, Valle del Cauca, COL,BARRIO OBRERO", "SITIO": "SIN INFORMACION", "X": -76.519855, "Y": 3.447778, "FECHA_HECH": "2024-11-12T00:00:00", "HORA_HECHO": "15:59", "ESTRATO": 2 }, "geometry": { "type": "Point", "coordinates": [ -76.519855, 3.447778 ] } },
{ "type": "Feature", "properties": { "DELITO": "HURTO", "TIPO_HURTO": "HURTO DE VEHICULOS", "MODALIDAD": "HALADO", "COMUNA": 9, "NOM_COMUNA": "COMUNA 9", "BARRIO": 910, "NOM_BARRIO": "Barrio Obrero", "DIRECCION": "76001 CARRERA 11B 23 36, SANTIAGO DE CALI, CALI, VALLE DEL CAUCA", "SITIO": "DOMICILIO", "X": -76.519445, "Y": 3.448121, "FECHA_HECH": "2024-12-29T00:00:00", "HORA_HECHO": "15:00", "ESTRATO": 2 }, "geometry": { "type": "Point", "coordinates": [ -76.519445, 3.448121 ] } },
{ "type": "Feature", "properties": { "DELITO": "HURTO", "TIPO_HURTO": "HURTO A PERSONAS", "MODALIDAD": "COSQUILLEO", "COMUNA": 9, "NOM_COMUNA": "COMUNA 9", "BARRIO": 910, "NOM_BARRIO": "Barrio Obrero", "DIRECCION": "76001 Calle 23 30-2, Barrio Obrero, Cali, Valle del Cauca, COL,BARRIO OBRERO", "SITIO": "SIN INFORMACION", "X": -76.519512, "Y": 3.446588, "FECHA_HECH": "2024-02-29T00:00:00", "HORA_HECHO": "16:00", "ESTRATO": 2 }, "geometry": { "type": "Point", "coordinates": [ -76.519512, 3.446588 ] } },
{ "type": "Feature", "properties": { "DELITO": "HURTO", "TIPO_HURTO": "HURTO A PERSONAS", "MODALIDAD": "ATRACO", "COMUNA": 9, "NOM_COMUNA": "COMUNA 9", "BARRIO": 910, "NOM_BARRIO": "Barrio Obrero", "DIRECCION": "76001 CALLE 24 CON CARRERA 11, BARRIO OBRERO, CALI, VALLE DEL CAUCA", "SITIO": "VIA PUBLICA", "X": -76.519238, "Y": 3.449248, "FECHA_HECH": "2024-05-04T00:00:00", "HORA_HECHO": "01:30", "ESTRATO": 2 }, "geometry": { "type": "Point", "coordinates": [ -76.519238, 3.449248 ] } },
{ "type": "Feature", "properties": { "DELITO": "HURTO", "TIPO_HURTO": "HURTO A PERSONAS", "MODALIDAD": "ATRACO", "COMUNA": 9, "NOM_COMUNA": "COMUNA 9", "BARRIO": 910, "NOM_BARRIO": "Barrio Obrero", "DIRECCION": "76001 CALLE 23 CON CARRERA 11, BARRIO OBRERO, CALI, VALLE DEL CAUCA", "SITIO": "VIA PUBLICA", "X": -76.520088, "Y": 3.449061, "FECHA_HECH": "2024-05-21T00:00:00", "HORA_HECHO": "05:00", "ESTRATO": 2 }, "geometry": { "type": "Point", "coordinates": [ -76.520088, 3.449061 ] } },
{ "type": "Feature", "properties": { "DELITO": "HURTO", "TIPO_HURTO": "HURTO A PERSONAS", "MODALIDAD": "ATRACO", "COMUNA": 9, "NOM_COMUNA": "COMUNA 9", "BARRIO": 910, "NOM_BARRIO": "Barrio Obrero", "DIRECCION": "76001 Barrio Obrero, Cali, Valle del Cauca, COL,BARRIO OBRERO", "SITIO": "SIN INFORMACION", "X": -76.520529, "Y": 3.448278, "FECHA_HECH": "2024-02-16T00:00:00", "HORA_HECHO": "18:30", "ESTRATO": 2 }, "geometry": { "type": "Point", "coordinates": [ -76.520529, 3.448278 ] } },
{ "type": "Feature", "properties": { "DELITO": "HURTO", "TIPO_HURTO": "HURTO DE MOTOCICLETAS", "MODALIDAD": "HALADO", "COMUNA": 9, "NOM_COMUNA": "COMUNA 9", "BARRIO": 910, "NOM_BARRIO": "Barrio Obrero", "DIRECCION": "76001 KR 12 CL 24-74 CARRERA 12 No 24 74", "SITIO": "SIN INFORMACION", "X": -76.51899, "Y": 3.44684, "FECHA_HECH": "2024-07-20T00:00:00", "HORA_HECHO": "06:00", "ESTRATO": 2 }, "geometry": { "type": "Point", "coordinates": [ -76.51899, 3.44684 ] } },
{ "type": "Feature", "properties": { "DELITO": "HURTO", "TIPO_HURTO": "HURTO DE MOTOCICLETAS", "MODALIDAD": "HALADO", "COMUNA": 9, "NOM_COMUNA": "COMUNA 9", "BARRIO": 910, "NOM_BARRIO": "Barrio Obrero", "DIRECCION": "76001 Calle 24 11b 18, Santiago De Cali, Cali, Valle Del Cauca, COL,BARRIO OBRERO", "SITIO": "SIN INFORMACION", "X": -76.519128, "Y": 3.448252, "FECHA_HECH": "2024-10-09T00:00:00", "HORA_HECHO": "13:30", "ESTRATO": 2 }, "geometry": { "type": "Point", "coordinates": [ -76.519128, 3.448252 ] } },
{ "type": "Feature", "properties": { "DELITO": "HURTO", "TIPO_HURTO": "HURTO A PERSONAS", "MODALIDAD": "VIOLACION DE CERRADURA", "COMUNA": 9, "NOM_COMUNA": "COMUNA 9", "BARRIO": 910, "NOM_BARRIO": "Barrio Obrero", "DIRECCION": "76001 Calle 23 30-2, Barrio Obrero, Cali, Valle del Cauca, COL,BARRIO OBRERO", "SITIO": "SIN INFORMACION", "X": -76.519512, "Y": 3.446588, "FECHA_HECH": "2024-11-14T00:00:00", "HORA_HECHO": "21:15", "ESTRATO": 2 }, "geometry": { "type": "Point", "coordinates": [ -76.519512, 3.446588 ] } },
{ "type": "Feature", "properties": { "DELITO": "HURTO", "TIPO_HURTO": "HURTO A PERSONAS", "MODALIDAD": "FACTOR DE OPORTUNIDAD", "COMUNA": 9, "NOM_COMUNA": "COMUNA 9", "BARRIO": 910, "NOM_BARRIO": "Barrio Obrero", "DIRECCION": "76001 CARRERA 11B 22A 67, SANTIAGO DE CALI, CALI, VALLE DEL CAUCA, COL,BARRIO OBRERO", "SITIO": "OTRO", "X": -76.520099, "Y": 3.448385, "FECHA_HECH": "2024-10-20T00:00:00", "HORA_HECHO": "10:00", "ESTRATO": 2 }, "geometry": { "type": "Point", "coordinates": [ -76.520099, 3.448385 ] } },
{ "type": "Feature", "properties": { "DELITO": "HURTO", "TIPO_HURTO": "HURTO A PERSONAS", "MODALIDAD": "RAPONAZO", "COMUNA": 9, "NOM_COMUNA": "COMUNA 9", "BARRIO": 910, "NOM_BARRIO": "Barrio Obrero", "DIRECCION": "76001 CARRERA 11 22A 78, BARRIO OBRERO, CALI, VALLE DEL CAUCA", "SITIO": "LUGAR DE RECREACION / PARQUE", "X": -76.520289, "Y": 3.448958, "FECHA_HECH": "2024-12-31T00:00:00", "HORA_HECHO": "01:13", "ESTRATO": 2 }, "geometry": { "type": "Point", "coordinates": [ -76.520289, 3.448958 ] } },
{ "type": "Feature", "properties": { "DELITO": "HURTO", "TIPO_HURTO": "HURTO A PERSONAS", "MODALIDAD": "ATRACO", "COMUNA": 0, "NOM_COMUNA": "COMUNA 9", "BARRIO": 9, "NOM_BARRIO": "2", "DIRECCION": "76001 BARRIO/LOCALIDAD/COMUNA:BARRIO OBRERO/COMUNA 9,CALI/VALLE DEL CAUCA,BARRIO OBRERO", "SITIO": "SIN INFORMACION", "X": -76.52055, "Y": 3.447505, "FECHA_HECH": "2025-01-03T00:00:00", "HORA_HECHO": "06:45", "ESTRATO": 2 }, "geometry": { "type": "Point", "coordinates": [ -76.52055, 3.447505 ] } },
{ "type": "Feature", "properties": { "DELITO": "HURTO", "TIPO_HURTO": "HURTO A CELULARES", "MODALIDAD": "FACTOR DE OPORTUNIDAD", "COMUNA": 0, "NOM_COMUNA": "COMUNA 9", "BARRIO": 9, "NOM_BARRIO": "2", "DIRECCION": "76001 Carrera 11 22a 30, Santiago De Cali, Cali, Valle Del Cauca, COL,BARRIO OBRERO", "SITIO": "SIN INFORMACION", "X": -76.520304, "Y": 3.448758, "FECHA_HECH": "2025-01-04T00:00:00", "HORA_HECHO": "11:00", "ESTRATO": 2 }, "geometry": { "type": "Point", "coordinates": [ -76.520304, 3.448758 ] } },
{ "type": "Feature", "properties": { "DELITO": "HURTO", "TIPO_HURTO": "HURTO A CELULARES", "MODALIDAD": "COSQUILLEO", "COMUNA": 0, "NOM_COMUNA": "COMUNA 9", "BARRIO": 9, "NOM_BARRIO": "2", "DIRECCION": "76001 CALLE 23, BARRIO OBRERO, CALI, VALLE DEL CAUCA", "SITIO": "VIA PUBLICA", "X": -76.519938, "Y": 3.448419, "FECHA_HECH": "2025-01-15T00:00:00", "HORA_HECHO": "05:30", "ESTRATO": 2 }, "geometry": { "type": "Point", "coordinates": [ -76.519938, 3.448419 ] } },
{ "type": "Feature", "properties": { "DELITO": "HURTO", "TIPO_HURTO": "HURTO A PERSONAS", "MODALIDAD": "COSQUILLEO", "COMUNA": 0, "NOM_COMUNA": "COMUNA 9", "BARRIO": 9, "NOM_BARRIO": "2", "DIRECCION": "76001 BARRIO/LOCALIDAD/COMUNA:BARRIO OBRERO/COMUNA 9,CALI/VALLE DEL CAUCA,BARRIO OBRERO", "SITIO": "SIN INFORMACION", "X": -76.520561, "Y": 3.448737, "FECHA_HECH": "2025-02-03T00:00:00", "HORA_HECHO": "21:01", "ESTRATO": 2 }, "geometry": { "type": "Point", "coordinates": [ -76.520561, 3.448737 ] } },
{ "type": "Feature", "properties": { "DELITO": "HURTO", "TIPO_HURTO": "HURTO A PERSONAS", "MODALIDAD": "ATRACO", "COMUNA": 0, "NOM_COMUNA": "COMUNA 9", "BARRIO": 9, "NOM_BARRIO": "2", "DIRECCION": "76001 CARRERA 11D 22A 57", "SITIO": "VIA PUBLICA", "X": -76.520078, "Y": 3.447363, "FECHA_HECH": "2025-02-11T00:00:00", "HORA_HECHO": "09:30", "ESTRATO": 2 }, "geometry": { "type": "Point", "coordinates": [ -76.520078, 3.447363 ] } },
{ "type": "Feature", "properties": { "DELITO": "HURTO", "TIPO_HURTO": "HURTO A CELULARES", "MODALIDAD": "ATRACO", "COMUNA": 0, "NOM_COMUNA": "COMUNA 9", "BARRIO": 9, "NOM_BARRIO": "2", "DIRECCION": "76001 Carrera 11D 23, Barrio Obrero, Cali, Valle del Cauca, COL,BARRIO OBRERO", "SITIO": "SIN INFORMACION", "X": -76.519267, "Y": 3.447499, "FECHA_HECH": "2025-02-15T00:00:00", "HORA_HECHO": "18:30", "ESTRATO": 2 }, "geometry": { "type": "Point", "coordinates": [ -76.519267, 3.447499 ] } },
{ "type": "Feature", "properties": { "DELITO": "HURTO", "TIPO_HURTO": "HURTO A PERSONAS", "MODALIDAD": "ATRACO", "COMUNA": 0, "NOM_COMUNA": "COMUNA 9", "BARRIO": 9, "NOM_BARRIO": "2", "DIRECCION": "76001 CARRERA 11 22A 38, SANTIAGO DE CALI, CALI, VALLE DEL CAUCA", "SITIO": "VIA PUBLICA", "X": -76.520219, "Y": 3.447829, "FECHA_HECH": "2025-02-25T00:00:00", "HORA_HECHO": "22:30", "ESTRATO": 2 }, "geometry": { "type": "Point", "coordinates": [ -76.520219, 3.447829 ] } },
{ "type": "Feature", "properties": { "DELITO": "HURTO", "TIPO_HURTO": "HURTO A PERSONAS", "MODALIDAD": "VIOLACION DE CERRADURA", "COMUNA": 0, "NOM_COMUNA": "COMUNA 9", "BARRIO": 9, "NOM_BARRIO": "2", "DIRECCION": "76001 Calle 23 11 61, Santiago De Cali, Cali, Valle Del Cauca, COL,BARRIO OBRERO", "SITIO": "SIN INFORMACION", "X": -76.519747, "Y": 3.448482, "FECHA_HECH": "2025-03-01T00:00:00", "HORA_HECHO": "22:00", "ESTRATO": 2 }, "geometry": { "type": "Point", "coordinates": [ -76.519747, 3.448482 ] } },
{ "type": "Feature", "properties": { "DELITO": "HURTO", "TIPO_HURTO": "HURTO A ESTABLECIMIENTOS", "MODALIDAD": "VIOLACION DE CERRADURA", "COMUNA": 0, "NOM_COMUNA": "COMUNA 9", "BARRIO": 9, "NOM_BARRIO": "2", "DIRECCION": "76001 CALLE 25 11 54, SANTIAGO DE CALI, CALI, VALLE DEL CAUCA", "SITIO": "LUGAR DE TRABAJO", "X": -76.518485, "Y": 3.448887, "FECHA_HECH": "2025-03-11T00:00:00", "HORA_HECHO": "07:00", "ESTRATO": 2 }, "geometry": { "type": "Point", "coordinates": [ -76.518485, 3.448887 ] } },
{ "type": "Feature", "properties": { "DELITO": "HURTO", "TIPO_HURTO": "HURTO A ESTABLECIMIENTOS", "MODALIDAD": "FACTOR DE OPORTUNIDAD", "COMUNA": 0, "NOM_COMUNA": "COMUNA 9", "BARRIO": 9, "NOM_BARRIO": "2", "DIRECCION": "76001 CARRERA 11 24 50", "SITIO": "ESTABLECIMIENTO DE COMERCIO", "X": -76.518702, "Y": 3.448983, "FECHA_HECH": "2025-03-27T00:00:00", "HORA_HECHO": "01:20", "ESTRATO": 2 }, "geometry": { "type": "Point", "coordinates": [ -76.518702, 3.448983 ] } },
{ "type": "Feature", "properties": { "DELITO": "HURTO", "TIPO_HURTO": "HURTO DE MOTOCICLETAS", "MODALIDAD": "HALADO", "COMUNA": 0, "NOM_COMUNA": "COMUNA 9", "BARRIO": 9, "NOM_BARRIO": "2", "DIRECCION": "76001 CALLE 23 11B 2", "SITIO": "VIA PUBLICA", "X": -76.51988, "Y": 3.448185, "FECHA_HECH": "2025-03-28T00:00:00", "HORA_HECHO": "10:00", "ESTRATO": 2 }, "geometry": { "type": "Point", "coordinates": [ -76.51988, 3.448185 ] } },
{ "type": "Feature", "properties": { "DELITO": "HURTO", "TIPO_HURTO": "HURTO A PERSONAS", "MODALIDAD": "ATRACO", "COMUNA": 0, "NOM_COMUNA": "COMUNA 9", "BARRIO": 9, "NOM_BARRIO": "2", "DIRECCION": "76001 CARRERA 11B 22A 85", "SITIO": "VIA PUBLICA", "X": -76.520081, "Y": 3.448271, "FECHA_HECH": "2025-04-03T00:00:00", "HORA_HECHO": "11:20", "ESTRATO": 2 }, "geometry": { "type": "Point", "coordinates": [ -76.520081, 3.448271 ] } },
{ "type": "Feature", "properties": { "DELITO": "HURTO", "TIPO_HURTO": "HURTO A PERSONAS", "MODALIDAD": "ATRACO", "COMUNA": 0, "NOM_COMUNA": "COMUNA 9", "BARRIO": 9, "NOM_BARRIO": "2", "DIRECCION": "76001 Calle 23, Barrio Obrero, Cali, Valle del Cauca, COL,BARRIO OBRERO", "SITIO": "SIN INFORMACION", "X": -76.519938, "Y": 3.448419, "FECHA_HECH": "2025-04-15T00:00:00", "HORA_HECHO": "23:30", "ESTRATO": 2 }, "geometry": { "type": "Point", "coordinates": [ -76.519938, 3.448419 ] } },
{ "type": "Feature", "properties": { "DELITO": "HURTO", "TIPO_HURTO": "HURTO A PERSONAS", "MODALIDAD": "COSQUILLEO", "COMUNA": 0, "NOM_COMUNA": "COMUNA 9", "BARRIO": 9, "NOM_BARRIO": "2", "DIRECCION": "76001 CARRERA 11 22A 67", "SITIO": "VIA PUBLICA", "X": -76.520363, "Y": 3.448999, "FECHA_HECH": "2025-05-08T00:00:00", "HORA_HECHO": "13:00", "ESTRATO": 2 }, "geometry": { "type": "Point", "coordinates": [ -76.520363, 3.448999 ] } },
{ "type": "Feature", "properties": { "DELITO": "HURTO", "TIPO_HURTO": "HURTO A ESTABLECIMIENTOS", "MODALIDAD": "VIOLACION DE CERRADURA", "COMUNA": 0, "NOM_COMUNA": "COMUNA 9", "BARRIO": 9, "NOM_BARRIO": "2", "DIRECCION": "76001 BARRIO/LOCALIDAD/COMUNA:BARRIO OBRERO/COMUNA 9,CALI/VALLE DEL CAUCA,BARRIO OBRERO", "SITIO": "SIN INFORMACION", "X": -76.520566, "Y": 3.448731, "FECHA_HECH": "2025-05-26T00:00:00", "HORA_HECHO": "15:00", "ESTRATO": 2 }, "geometry": { "type": "Point", "coordinates": [ -76.520566, 3.448731 ] } },
{ "type": "Feature", "properties": { "DELITO": "HURTO", "TIPO_HURTO": "HURTO DE AUTOPARTES", "MODALIDAD": "ATRACO", "COMUNA": 0, "NOM_COMUNA": "COMUNA 9", "BARRIO": 9, "NOM_BARRIO": "2", "DIRECCION": "76001 CARRERA 11 CON CALLE 25, BARRIO OBRERO, CALI, VALLE DEL CAUCA", "SITIO": "VIA PUBLICA", "X": -76.518432, "Y": 3.449418, "FECHA_HECH": "2025-05-27T00:00:00", "HORA_HECHO": "00:18", "ESTRATO": 2 }, "geometry": { "type": "Point", "coordinates": [ -76.518432, 3.449418 ] } },
{ "type": "Feature", "properties": { "DELITO": "HURTO", "TIPO_HURTO": "HURTO A PERSONAS", "MODALIDAD": "ATRACO", "COMUNA": 0, "NOM_COMUNA": "COMUNA 9", "BARRIO": 9, "NOM_BARRIO": "2", "DIRECCION": "76001 Calle 24 11 1-99, Barrio Obrero, Cali, Valle del Cauca, COL,BARRIO OBRERO", "SITIO": "SIN INFORMACION", "X": -76.519213, "Y": 3.449224, "FECHA_HECH": "2025-06-20T00:00:00", "HORA_HECHO": "13:26", "ESTRATO": 2 }, "geometry": { "type": "Point", "coordinates": [ -76.519213, 3.449224 ] } },
{ "type": "Feature", "properties": { "DELITO": "HURTO", "TIPO_HURTO": "HURTO A ESTABLECIMIENTOS", "MODALIDAD": "FACTOR DE OPORTUNIDAD", "COMUNA": 0, "NOM_COMUNA": "COMUNA 9", "BARRIO": 9, "NOM_BARRIO": "2", "DIRECCION": "76001 CARRERA 11 22A 68", "SITIO": "VIA PUBLICA", "X": -76.520356, "Y": 3.44899, "FECHA_HECH": "2025-06-26T00:00:00", "HORA_HECHO": "08:30", "ESTRATO": 2 }, "geometry": { "type": "Point", "coordinates": [ -76.520356, 3.44899 ] } },
{ "type": "Feature", "properties": { "DELITO": "HURTO", "TIPO_HURTO": "HURTO A PERSONAS", "MODALIDAD": "ATRACO", "COMUNA": 0, "NOM_COMUNA": "COMUNA 9", "BARRIO": 9, "NOM_BARRIO": "2", "DIRECCION": "76001 CALLE 25 CON CARRERA 11, BARRIO OBRERO, CALI, VALLE DEL CAUCA", "SITIO": "VIA PUBLICA", "X": -76.518432, "Y": 3.449418, "FECHA_HECH": "2025-07-01T00:00:00", "HORA_HECHO": "14:30", "ESTRATO": 2 }, "geometry": { "type": "Point", "coordinates": [ -76.518432, 3.449418 ] } },
{ "type": "Feature", "properties": { "DELITO": "HURTO", "TIPO_HURTO": "HURTO A PERSONAS", "MODALIDAD": "ATRACO", "COMUNA": 0, "NOM_COMUNA": "COMUNA 9", "BARRIO": 9, "NOM_BARRIO": "2", "DIRECCION": "76001 CALLE 22A 11 99", "SITIO": "VIA PUBLICA", "X": -76.520698, "Y": 3.448048, "FECHA_HECH": "2025-07-10T00:00:00", "HORA_HECHO": "02:00", "ESTRATO": 2 }, "geometry": { "type": "Point", "coordinates": [ -76.520698, 3.448048 ] } },
{ "type": "Feature", "properties": { "DELITO": "HURTO", "TIPO_HURTO": "HURTO A PERSONAS", "MODALIDAD": "ATRACO", "COMUNA": 0, "NOM_COMUNA": "COMUNA 9", "BARRIO": 9, "NOM_BARRIO": "2", "DIRECCION": "76001 CARRERA 11D 22A 98", "SITIO": "VIA PUBLICA", "X": -76.519738, "Y": 3.447389, "FECHA_HECH": "2025-07-13T00:00:00", "HORA_HECHO": "19:00", "ESTRATO": 2 }, "geometry": { "type": "Point", "coordinates": [ -76.519738, 3.447389 ] } },
{ "type": "Feature", "properties": { "DELITO": "HURTO", "TIPO_HURTO": "HURTO A PERSONAS", "MODALIDAD": "FACTOR DE OPORTUNIDAD", "COMUNA": 0, "NOM_COMUNA": "COMUNA 9", "BARRIO": 9, "NOM_BARRIO": "2", "DIRECCION": "76001 CARRERA 11D 22A 46, BARRIO OBRERO, CALI, VALLE DEL CAUCA", "SITIO": "VIA PUBLICA", "X": -76.520001, "Y": 3.447148, "FECHA_HECH": "2025-07-18T00:00:00", "HORA_HECHO": "14:38", "ESTRATO": 2 }, "geometry": { "type": "Point", "coordinates": [ -76.520001, 3.447148 ] } },
{ "type": "Feature", "properties": { "DELITO": "HURTO", "TIPO_HURTO": "HURTO A PERSONAS", "MODALIDAD": "ROMPIMIENTO DE VIDRIO", "COMUNA": 0, "NOM_COMUNA": "COMUNA 9", "BARRIO": 9, "NOM_BARRIO": "2", "DIRECCION": "76001 Calle 23, Barrio Obrero, Cali, Valle del Cauca, COL,BARRIO OBRERO", "SITIO": "SIN INFORMACION", "X": -76.519938, "Y": 3.448419, "FECHA_HECH": "2025-07-18T00:00:00", "HORA_HECHO": "05:30", "ESTRATO": 2 }, "geometry": { "type": "Point", "coordinates": [ -76.519938, 3.448419 ] } },
{ "type": "Feature", "properties": { "DELITO": "HURTO", "TIPO_HURTO": "HURTO A PERSONAS", "MODALIDAD": "ATRACO", "COMUNA": 0, "NOM_COMUNA": "COMUNA 9", "BARRIO": 9, "NOM_BARRIO": "2", "DIRECCION": "76001 CALLE 23, BARRIO OBRERO, CALI, VALLE DEL CAUCA, COL,BARRIO OBRERO", "SITIO": "VIA PUBLICA", "X": -76.519938, "Y": 3.448419, "FECHA_HECH": "2025-07-29T00:00:00", "HORA_HECHO": "15:10", "ESTRATO": 2 }, "geometry": { "type": "Point", "coordinates": [ -76.519938, 3.448419 ] } },
{ "type": "Feature", "properties": { "DELITO": "HURTO", "TIPO_HURTO": "HURTO A PERSONAS", "MODALIDAD": "ATRACO", "COMUNA": 0, "NOM_COMUNA": "COMUNA 9", "BARRIO": 9, "NOM_BARRIO": "2", "DIRECCION": "76001 CARRERA 11B 22A 59", "SITIO": "VIA PUBLICA", "X": -76.520318, "Y": 3.448492, "FECHA_HECH": "2025-08-13T00:00:00", "HORA_HECHO": "20:00", "ESTRATO": 2 }, "geometry": { "type": "Point", "coordinates": [ -76.520318, 3.448492 ] } },
{ "type": "Feature", "properties": { "DELITO": "HURTO", "TIPO_HURTO": "HURTO A PERSONAS", "MODALIDAD": "COSQUILLEO", "COMUNA": 0, "NOM_COMUNA": "COMUNA 9", "BARRIO": 9, "NOM_BARRIO": "2", "DIRECCION": "76001 BARRIO/LOCALIDAD/COMUNA:BARRIO OBRERO/COMUNA 9,CALI/VALLE DEL CAUCA,BARRIO OBRERO", "SITIO": "SIN INFORMACION", "X": -76.520301, "Y": 3.448815, "FECHA_HECH": "2025-10-14T00:00:00", "HORA_HECHO": "22:00", "ESTRATO": 2 }, "geometry": { "type": "Point", "coordinates": [ -76.520301, 3.448815 ] } },
{ "type": "Feature", "properties": { "DELITO": "HURTO", "TIPO_HURTO": "HURTO A PERSONAS", "MODALIDAD": "ATRACO", "COMUNA": 0, "NOM_COMUNA": "COMUNA 9", "BARRIO": 9, "NOM_BARRIO": "2", "DIRECCION": "76001 Barrio Obrero, Cali, Valle del Cauca, COL,BARRIO OBRERO", "SITIO": "SIN INFORMACION", "X": -76.520529, "Y": 3.448278, "FECHA_HECH": "2025-10-17T00:00:00", "HORA_HECHO": "11:30", "ESTRATO": 2 }, "geometry": { "type": "Point", "coordinates": [ -76.520529, 3.448278 ] } },
{ "type": "Feature", "properties": { "DELITO": "HURTO", "TIPO_HURTO": "HURTO A PERSONAS", "MODALIDAD": "ATRACO", "COMUNA": 0, "NOM_COMUNA": "COMUNA 9", "BARRIO": 9, "NOM_BARRIO": "2", "DIRECCION": "76001 CARRERA 11 23 50", "SITIO": "VIA PUBLICA", "X": -76.519645, "Y": 3.449155, "FECHA_HECH": "2025-10-20T00:00:00", "HORA_HECHO": "05:20", "ESTRATO": 2 }, "geometry": { "type": "Point", "coordinates": [ -76.519645, 3.449155 ] } },
{ "type": "Feature", "properties": { "DELITO": "HURTO", "TIPO_HURTO": "HURTO A PERSONAS", "MODALIDAD": "VIOLACION DE CERRADURA", "COMUNA": 0, "NOM_COMUNA": "COMUNA 9", "BARRIO": 9, "NOM_BARRIO": "2", "DIRECCION": "76001 CARRERA 11 22A 56", "SITIO": "VIA PUBLICA", "X": -76.520423, "Y": 3.448941, "FECHA_HECH": "2025-10-29T00:00:00", "HORA_HECHO": "14:30", "ESTRATO": 2 }, "geometry": { "type": "Point", "coordinates": [ -76.520423, 3.448941 ] } },
{ "type": "Feature", "properties": { "DELITO": "HURTO", "TIPO_HURTO": "HURTO A PERSONAS", "MODALIDAD": "FACTOR DE OPORTUNIDAD", "COMUNA": 0, "NOM_COMUNA": "COMUNA 9", "BARRIO": 9, "NOM_BARRIO": "2", "DIRECCION": "76001 CARRERA 11 22A 84", "SITIO": "VIA PUBLICA", "X": -76.520235, "Y": 3.448956, "FECHA_HECH": "2025-11-05T00:00:00", "HORA_HECHO": "07:00", "ESTRATO": 2 }, "geometry": { "type": "Point", "coordinates": [ -76.520235, 3.448956 ] } },
{ "type": "Feature", "properties": { "DELITO": "HURTO", "TIPO_HURTO": "HURTO A PERSONAS", "MODALIDAD": "ATRACO", "COMUNA": 0, "NOM_COMUNA": null, "BARRIO": 9, "NOM_BARRIO": "2", "DIRECCION": "76001 CL 24 CON CON KR 11 D", "SITIO": "SIN INFORMACION", "X": -76.51887, "Y": 3.447716, "FECHA_HECH": "2025-11-22T00:00:00", "HORA_HECHO": "09:00", "ESTRATO": 2 }, "geometry": { "type": "Point", "coordinates": [ -76.51887, 3.447716 ] } },
{ "type": "Feature", "properties": { "DELITO": "HURTO", "TIPO_HURTO": "HURTO A PERSONAS", "MODALIDAD": "ATRACO", "COMUNA": 0, "NOM_COMUNA": null, "BARRIO": 9, "NOM_BARRIO": "2", "DIRECCION": "76001 CL 24 CON CON KR 11 B  CLL 24 CON CRA 11 B", "SITIO": "SIN INFORMACION", "X": -76.519035, "Y": 3.448461, "FECHA_HECH": "2025-11-24T00:00:00", "HORA_HECHO": "04:30", "ESTRATO": 2 }, "geometry": { "type": "Point", "coordinates": [ -76.519035, 3.448461 ] } },
{ "type": "Feature", "properties": { "DELITO": "HURTO", "TIPO_HURTO": "HURTO DE MOTOCICLETAS", "MODALIDAD": "ATRACO", "COMUNA": 0, "NOM_COMUNA": "COMUNA 9", "BARRIO": 9, "NOM_BARRIO": "2", "DIRECCION": "76001 Calle 22A 11 25, Barrio Obrero, Cali, Valle del Cauca, COL,BARRIO OBRERO", "SITIO": "SIN INFORMACION", "X": -76.520709, "Y": 3.448634, "FECHA_HECH": "2025-12-18T00:00:00", "HORA_HECHO": "06:00", "ESTRATO": 2 }, "geometry": { "type": "Point", "coordinates": [ -76.520709, 3.448634 ] } }
]
}
