{
"type": "FeatureCollection",
"name": "VIOLENCIA_INTRAFAMILIAR_2023_2025_OBRERO",
"crs": { "type": "name", "properties": { "name": "urn:ogc:def:crs:OGC:1.3:CRS84" } },
"features": [
{ "type": "Feature", "properties": { "DELITO": "VIOLENCIA INTRAFAMILIAR", "SITIO": "SIN INFORMACION", "COMUNA": 9, "NOM_COMUNA": "COMUNA 9", "BARRIO": 910, "NOM_BARRIO": "Barrio Obrero", "DIRECCION": "76001 El Forastero, Calle 22A, Barrio Obrero, Comuna 9, Cali, Valle del Cauca, COL,BARRIO OBRERO", "X": -76.520756, "Y": 3.448801, "FECHA_HECH": "2023-01-14T00:00:00", "HORA_HECHO": "17:30", "ESTRATO": 2 }, "geometry": { "type": "Point", "coordinates": [ -76.520756, 3.448801 ] } },
{ "type": "Feature", "properties": { "DELITO": "VIOLENCIA INTRAFAMILIAR", "SITIO": "SIN INFORMACION", "COMUNA": 9, "NOM_COMUNA": "COMUNA 9", "BARRIO": 910, "NOM_BARRIO": "Barrio Obrero", "DIRECCION": "76001 Calle 22A 11 1-99, Barrio Obrero, Comuna 9, Cali, Valle del Cauca, COL,BARRIO OBRERO", "X": -76.520593, "Y": 3.448662, "FECHA_HECH": "2023-01-21T00:00:00", "HORA_HECHO": "09:00", "ESTRATO": 2 }, "geometry": { "type": "Point", "coordinates": [ -76.520593, 3.448662 ] } },
{ "type": "Feature", "properties": { "DELITO": "VIOLENCIA INTRAFAMILIAR", "SITIO": "SIN INFORMACION", "COMUNA": 9, "NOM_COMUNA": "COMUNA 9", "BARRIO": 910, "NOM_BARRIO": "Barrio Obrero", "DIRECCION": "76001 El Forastero, Calle 22A, Barrio Obrero, Comuna 9, Cali, Valle del Cauca, COL,BARRIO OBRERO", "X": -76.520797, "Y": 3.448694, "FECHA_HECH": "2023-01-21T00:00:00", "HORA_HECHO": "22:00", "ESTRATO": 2 }, "geometry": { "type": "Point", "coordinates": [ -76.520797, 3.448694 ] } },
{ "type": "Feature", "properties": { "DELITO": "VIOLENCIA INTRAFAMILIAR", "SITIO": "DOMICILIO", "COMUNA": 9, "NOM_COMUNA": "COMUNA 9", "BARRIO": 910, "NOM_BARRIO": "Barrio Obrero", "DIRECCION": "76001 CARRERA 11D 23 58, BARRIO OBRERO, COMUNA 9, CALI, VALLE DEL CAUCA", "X": -76.519209, "Y": 3.447451, "FECHA_HECH": "2023-02-16T00:00:00", "HORA_HECHO": "10:00", "ESTRATO": 2 }, "geometry": { "type": "Point", "coordinates": [ -76.519209, 3.447451 ] } },
{ "type": "Feature", "properties": { "DELITO": "VIOLENCIA INTRAFAMILIAR", "SITIO": "SIN INFORMACION", "COMUNA": 9, "NOM_COMUNA": "COMUNA 9", "BARRIO": 910, "NOM_BARRIO": "Barrio Obrero", "DIRECCION": "76001 Calle 24 11B 24, Barrio Obrero, Comuna 9, Cali, Valle del Cauca, COL,BARRIO OBRERO", "X": -76.519101, "Y": 3.448249, "FECHA_HECH": "2023-02-22T00:00:00", "HORA_HECHO": "18:40", "ESTRATO": 2 }, "geometry": { "type": "Point", "coordinates": [ -76.519101, 3.448249 ] } },
{ "type": "Feature", "properties": { "DELITO": "VIOLENCIA INTRAFAMILIAR", "SITIO": "ESTABLECIMIENTO EDUCATIVO", "COMUNA": 9, "NOM_COMUNA": "COMUNA 9", "BARRIO": 910, "NOM_BARRIO": "Barrio Obrero", "DIRECCION": "76001 CARRERA 11 22A 30, BARRIO OBRERO, COMUNA 9, CALI, VALLE DEL CAUCA", "X": -76.520609, "Y": 3.448888, "FECHA_HECH": "2023-02-24T00:00:00", "HORA_HECHO": "12:00", "ESTRATO": 2 }, "geometry": { "type": "Point", "coordinates": [ -76.520609, 3.448888 ] } },
{ "type": "Feature", "properties": { "DELITO": "VIOLENCIA INTRAFAMILIAR", "SITIO": "CAMPO ABIERTO", "COMUNA": 9, "NOM_COMUNA": "COMUNA 9", "BARRIO": 910, "NOM_BARRIO": "Barrio Obrero", "DIRECCION": "76001 CARRERA 11B 22A 46, BARRIO OBRERO, COMUNA 9, CALI, VALLE DEL CAUCA", "X": -76.520311, "Y": 3.448062, "FECHA_HECH": "2023-05-17T00:00:00", "HORA_HECHO": "21:20", "ESTRATO": 2 }, "geometry": { "type": "Point", "coordinates": [ -76.520311, 3.448062 ] } },
{ "type": "Feature", "properties": { "DELITO": "VIOLENCIA INTRAFAMILIAR", "SITIO": "SIN INFORMACION", "COMUNA": 9, "NOM_COMUNA": "COMUNA 9", "BARRIO": 910, "NOM_BARRIO": "Barrio Obrero", "DIRECCION": "76001 Carrera 11B 22A 1-99, Barrio Obrero, Comuna 9, Cali, Valle del Cauca, COL,BARRIO OBRERO", "X": -76.520248, "Y": 3.448332, "FECHA_HECH": "2023-06-06T00:00:00", "HORA_HECHO": "13:38", "ESTRATO": 2 }, "geometry": { "type": "Point", "coordinates": [ -76.520248, 3.448332 ] } },
{ "type": "Feature", "properties": { "DELITO": "VIOLENCIA INTRAFAMILIAR", "SITIO": "SIN INFORMACION", "COMUNA": 9, "NOM_COMUNA": "COMUNA 9", "BARRIO": 910, "NOM_BARRIO": "Barrio Obrero", "DIRECCION": "76001 Calle 24, Barrio Obrero, Comuna 9, Cali, Valle del Cauca, COL,BARRIO OBRERO", "X": -76.51948, "Y": 3.448824, "FECHA_HECH": "2023-07-20T00:00:00", "HORA_HECHO": "09:28", "ESTRATO": 2 }, "geometry": { "type": "Point", "coordinates": [ -76.51948, 3.448824 ] } },
{ "type": "Feature", "properties": { "DELITO": "VIOLENCIA INTRAFAMILIAR", "SITIO": "IGLESIA O PARROQUIA", "COMUNA": 9, "NOM_COMUNA": "COMUNA 9", "BARRIO": 910, "NOM_BARRIO": "Barrio Obrero", "DIRECCION": "76001 CALLE 24 11B 99", "X": -76.518834, "Y": 3.447669, "FECHA_HECH": "2024-01-27T00:00:00", "HORA_HECHO": "19:50", "ESTRATO": 2 }, "geometry": { "type": "Point", "coordinates": [ -76.518834, 3.447669 ] } },
{ "type": "Feature", "properties": { "DELITO": "VIOLENCIA INTRAFAMILIAR", "SITIO": "SIN INFORMACION", "COMUNA": 9, "NOM_COMUNA": "COMUNA 9", "BARRIO": 910, "NOM_BARRIO": "Barrio Obrero", "DIRECCION": "76001 Calle 23 11d 33, Santiago De Cali, Cali, Valle Del Cauca, COL,BARRIO OBRERO", "X": -76.519457, "Y": 3.447039, "FECHA_HECH": "2024-05-25T00:00:00", "HORA_HECHO": "18:00", "ESTRATO": 2 }, "geometry": { "type": "Point", "coordinates": [ -76.519457, 3.447039 ] } },
{ "type": "Feature", "properties": { "DELITO": "VIOLENCIA INTRAFAMILIAR", "SITIO": "SIN INFORMACION", "COMUNA": 9, "NOM_COMUNA": "COMUNA 9", "BARRIO": 910, "NOM_BARRIO": "Barrio Obrero", "DIRECCION": "76001 Calle 24 11 15, Santiago De Cali, Cali, Valle Del Cauca, COL,BARRIO OBRERO", "X": -76.518993, "Y": 3.449104, "FECHA_HECH": "2024-06-03T00:00:00", "HORA_HECHO": "17:21", "ESTRATO": 2 }, "geometry": { "type": "Point", "coordinates": [ -76.518993, 3.449104 ] } },
{ "type": "Feature", "properties": { "DELITO": "VIOLENCIA INTRAFAMILIAR", "SITIO": "VIA PUBLICA", "COMUNA": 9, "NOM_COMUNA": "COMUNA 9", "BARRIO": 910, "NOM_BARRIO": "Barrio Obrero", "DIRECCION": "76001 CALLE 23 11 44", "X": -76.520236, "Y": 3.44863, "FECHA_HECH": "2024-11-27T00:00:00", "HORA_HECHO": "14:30", "ESTRATO": 2 }, "geometry": { "type": "Point", "coordinates": [ -76.520236, 3.44863 ] } },
{ "type": "Feature", "properties": { "DELITO": "VIOLENCIA INTRAFAMILIAR", "SITIO": "VIA PUBLICA", "COMUNA": 9, "NOM_COMUNA": "COMUNA 9", "BARRIO": 910, "NOM_BARRIO": "Barrio Obrero", "DIRECCION": "76001 CARRERA 11D 22A, BARRIO OBRERO, CALI, VALLE DEL CAUCA", "X": -76.520145, "Y": 3.447321, "FECHA_HECH": "2025-01-11T00:00:00", "HORA_HECHO": "03:42", "ESTRATO": 2 }, "geometry": { "type": "Point", "coordinates": [ -76.520145, 3.447321 ] } },
{ "type": "Feature", "properties": { "DELITO": "VIOLENCIA INTRAFAMILIAR", "SITIO": "VIA PUBLICA", "COMUNA": 9, "NOM_COMUNA": "COMUNA 9", "BARRIO": 910, "NOM_BARRIO": "Barrio Obrero", "DIRECCION": "76001 CARRERA 11D 23 58, SANTIAGO DE CALI, CALI, VALLE DEL CAUCA", "X": -76.519111, "Y": 3.447324, "FECHA_HECH": "2025-03-13T00:00:00", "HORA_HECHO": "10:30", "ESTRATO": 2 }, "geometry": { "type": "Point", "coordinates": [ -76.519111, 3.447324 ] } },
{ "type": "Feature", "properties": { "DELITO": "VIOLENCIA INTRAFAMILIAR", "SITIO": "SIN INFORMACION", "COMUNA": 9, "NOM_COMUNA": "COMUNA 9", "BARRIO": 910, "NOM_BARRIO": "Barrio Obrero", "DIRECCION": "76001 BARRIO/LOCALIDAD/COMUNA:BARRIO OBRERO/COMUNA 9,CALI/VALLE DEL CAUCA,BARRIO OBRERO", "X": -76.520491, "Y": 3.448393, "FECHA_HECH": "2025-05-21T00:00:00", "HORA_HECHO": "08:24", "ESTRATO": 2 }, "geometry": { "type": "Point", "coordinates": [ -76.520491, 3.448393 ] } },
{ "type": "Feature", "properties": { "DELITO": "VIOLENCIA INTRAFAMILIAR", "SITIO": "SIN INFORMACION", "COMUNA": 9, "NOM_COMUNA": "COMUNA 9", "BARRIO": 910, "NOM_BARRIO": "Barrio Obrero", "DIRECCION": "76001 Carrera 11 22A 14, Barrio Obrero, Cali, Valle del Cauca, COL,BARRIO OBRERO", "X": -76.520561, "Y": 3.44879, "FECHA_HECH": "2025-06-13T00:00:00", "HORA_HECHO": "09:00", "ESTRATO": 2 }, "geometry": { "type": "Point", "coordinates": [ -76.520561, 3.44879 ] } },
{ "type": "Feature", "properties": { "DELITO": "VIOLENCIA INTRAFAMILIAR", "SITIO": "SIN INFORMACION", "COMUNA": 9, "NOM_COMUNA": "COMUNA 9", "BARRIO": 910, "NOM_BARRIO": "Barrio Obrero", "DIRECCION": "76001 BARRIO/LOCALIDAD/COMUNA:BARRIO OBRERO/COMUNA 9,CALI/VALLE DEL CAUCA,BARRIO OBRERO", "X": -76.520442, "Y": 3.448658, "FECHA_HECH": "2025-07-11T00:00:00", "HORA_HECHO": "15:00", "ESTRATO": 2 }, "geometry": { "type": "Point", "coordinates": [ -76.520442, 3.448658 ] } },
{ "type": "Feature", "properties": { "DELITO": "VIOLENCIA INTRAFAMILIAR", "SITIO": "SIN INFORMACION", "COMUNA": 9, "NOM_COMUNA": "COMUNA 9", "BARRIO": 910, "NOM_BARRIO": "Barrio Obrero", "DIRECCION": "76001 Carrera 11B, Barrio Obrero, Cali, Valle del Cauca, COL,BARRIO OBRERO", "X": -76.520099, "Y": 3.448185, "FECHA_HECH": "2025-11-09T00:00:00", "HORA_HECHO": "01:30", "ESTRATO": 2 }, "geometry": { "type": "Point", "coordinates": [ -76.520099, 3.448185 ] } },
{ "type": "Feature", "properties": { "DELITO": "VIOLENCIA INTRAFAMILIAR", "SITIO": "DOMICILIO", "COMUNA": 9, "NOM_COMUNA": "COMUNA 9", "BARRIO": 910, "NOM_BARRIO": "Barrio Obrero", "DIRECCION": "76001 CALLE 22A 11B 69", "X": -76.520524, "Y": 3.447521, "FECHA_HECH": "2025-12-09T00:00:00", "HORA_HECHO": "23:00", "ESTRATO": 2 }, "geometry": { "type": "Point", "coordinates": [ -76.520524, 3.447521 ] } }
]
}
